{
  "type": "FeatureCollection",
  "features": [
    {
      "type": "Feature",
      "properties": {
        "norad_id": 66461,
        "name": "STARLINK-35132",
        "group": "last-30-days",
        "lat": -28.78274911868405,
        "lon": -77.65953017244765,
        "alt_km": 446.55479870081035,
        "timestamp": "2025-12-13T15:35:10.875061+00:00",
        "meta_object_name": "STARLINK-35132",
        "meta_object_id": "2025-262F",
        "meta_epoch": "2025-12-12T20:00:01.999872",
        "meta_mean_motion": 15.40711797,
        "meta_eccentricity": 0.00017393,
        "meta_inclination": 43.0004,
        "meta_ra_of_asc_node": 70.9205,
        "meta_arg_of_pericenter": 295.1463,
        "meta_mean_anomaly": 78.0567,
        "meta_ephemeris_type": 0,
        "meta_classification_type": "U",
        "meta_norad_cat_id": 66461,
        "meta_element_set_no": 999,
        "meta_rev_at_epoch": 565,
        "meta_bstar": -0.001051285,
        "meta_mean_motion_dot": -0.00043984,
        "meta_mean_motion_ddot": 0,
        "tle_line1": "1 66461U 25262F   25346.83335648 -.00043984  00000+0 -10513-2 0  9991",
        "tle_line2": "2 66461  43.0004  70.9205 0001739 295.1463  78.0567 15.40711797  5650"
      },
      "geometry": {
        "type": "Point",
        "coordinates": [
          -77.65953017244765,
          -28.78274911868405
        ]
      }
    },
    {
      "type": "Feature",
      "properties": {
        "norad_id": 66462,
        "name": "STARLINK-35499",
        "group": "last-30-days",
        "lat": -35.01372816412526,
        "lon": -65.0695042971353,
        "alt_km": 446.6616557830321,
        "timestamp": "2025-12-13T15:35:10.875072+00:00",
        "meta_object_name": "STARLINK-35499",
        "meta_object_id": "2025-262G",
        "meta_epoch": "2025-12-12T20:00:01.999872",
        "meta_mean_motion": 15.40784373,
        "meta_eccentricity": 0.00012484,
        "meta_inclination": 43.0007,
        "meta_ra_of_asc_node": 70.8895,
        "meta_arg_of_pericenter": 264.2124,
        "meta_mean_anomaly": 121.3522,
        "meta_ephemeris_type": 0,
        "meta_classification_type": "U",
        "meta_norad_cat_id": 66462,
        "meta_element_set_no": 999,
        "meta_rev_at_epoch": 565,
        "meta_bstar": -0.0029662552,
        "meta_mean_motion_dot": -0.00122583,
        "meta_mean_motion_ddot": 0,
        "tle_line1": "1 66462U 25262G   25346.83335648 -.00122583  00000+0 -29663-2 0  9991",
        "tle_line2": "2 66462  43.0007  70.8895 0001248 264.2124 121.3522 15.40784373  5657"
      },
      "geometry": {
        "type": "Point",
        "coordinates": [
          -65.0695042971353,
          -35.01372816412526
        ]
      }
    },
    {
      "type": "Feature",
      "properties": {
        "norad_id": 66463,
        "name": "STARLINK-35463",
        "group": "last-30-days",
        "lat": -42.490457315994384,
        "lon": -34.45851964857877,
        "alt_km": 446.62413125204966,
        "timestamp": "2025-12-13T15:35:10.875083+00:00",
        "meta_object_name": "STARLINK-35463",
        "meta_object_id": "2025-262H",
        "meta_epoch": "2025-12-12T20:00:01.999872",
        "meta_mean_motion": 15.40728057,
        "meta_eccentricity": 0.00015167,
        "meta_inclination": 43.0007,
        "meta_ra_of_asc_node": 70.8283,
        "meta_arg_of_pericenter": 276.0795,
        "meta_mean_anomaly": 134.4387,
        "meta_ephemeris_type": 0,
        "meta_classification_type": "U",
        "meta_norad_cat_id": 66463,
        "meta_element_set_no": 999,
        "meta_rev_at_epoch": 565,
        "meta_bstar": -0.0014536884,
        "meta_mean_motion_dot": -0.00060604,
        "meta_mean_motion_ddot": 0,
        "tle_line1": "1 66463U 25262H   25346.83335648 -.00060604  00000+0 -14537-2 0  9991",
        "tle_line2": "2 66463  43.0007  70.8283 0001516 276.0795 134.4387 15.40728057  5653"
      },
      "geometry": {
        "type": "Point",
        "coordinates": [
          -34.45851964857877,
          -42.490457315994384
        ]
      }
    },
    {
      "type": "Feature",
      "properties": {
        "norad_id": 66464,
        "name": "STARLINK-35435",
        "group": "last-30-days",
        "lat": -39.74750567160572,
        "lon": -50.66531073177186,
        "alt_km": 446.9299655577124,
        "timestamp": "2025-12-13T15:35:10.875096+00:00",
        "meta_object_name": "STARLINK-35435",
        "meta_object_id": "2025-262J",
        "meta_epoch": "2025-12-12T20:00:01.999872",
        "meta_mean_motion": 15.407485,
        "meta_eccentricity": 0.00017556,
        "meta_inclination": 43.0006,
        "meta_ra_of_asc_node": 70.8597,
        "meta_arg_of_pericenter": 284.6238,
        "meta_mean_anomaly": 113.5178,
        "meta_ephemeris_type": 0,
        "meta_classification_type": "U",
        "meta_norad_cat_id": 66464,
        "meta_element_set_no": 999,
        "meta_rev_at_epoch": 565,
        "meta_bstar": -0.0035636912,
        "meta_mean_motion_dot": -0.00146585,
        "meta_mean_motion_ddot": 0,
        "tle_line1": "1 66464U 25262J   25346.83335648 -.00146585  00000+0 -35637-2 0  9999",
        "tle_line2": "2 66464  43.0006  70.8597 0001755 284.6238 113.5178 15.40748500  5654"
      },
      "geometry": {
        "type": "Point",
        "coordinates": [
          -50.66531073177186,
          -39.74750567160572
        ]
      }
    },
    {
      "type": "Feature",
      "properties": {
        "norad_id": 66465,
        "name": "STARLINK-35448",
        "group": "last-30-days",
        "lat": -40.67699299970346,
        "lon": -1.1955605849709205,
        "alt_km": 446.6315241979746,
        "timestamp": "2025-12-13T15:35:10.875107+00:00",
        "meta_object_name": "STARLINK-35448",
        "meta_object_id": "2025-262K",
        "meta_epoch": "2025-12-12T20:00:01.999872",
        "meta_mean_motion": 15.40717749,
        "meta_eccentricity": 0.00013161,
        "meta_inclination": 43.0006,
        "meta_ra_of_asc_node": 70.768,
        "meta_arg_of_pericenter": 287.5445,
        "meta_mean_anomaly": 147.8545,
        "meta_ephemeris_type": 0,
        "meta_classification_type": "U",
        "meta_norad_cat_id": 66465,
        "meta_element_set_no": 999,
        "meta_rev_at_epoch": 565,
        "meta_bstar": -0.001300699,
        "meta_mean_motion_dot": -0.00054283,
        "meta_mean_motion_ddot": 0,
        "tle_line1": "1 66465U 25262K   25346.83335648 -.00054283  00000+0 -13007-2 0  9990",
        "tle_line2": "2 66465  43.0006  70.7680 0001316 287.5445 147.8545 15.40717749  5651"
      },
      "geometry": {
        "type": "Point",
        "coordinates": [
          -1.1955605849709205,
          -40.67699299970346
        ]
      }
    },
    {
      "type": "Feature",
      "properties": {
        "norad_id": 66466,
        "name": "STARLINK-35388",
        "group": "last-30-days",
        "lat": -36.41438121612391,
        "lon": 13.699191177657816,
        "alt_km": 446.6263271723028,
        "timestamp": "2025-12-13T15:35:10.875119+00:00",
        "meta_object_name": "STARLINK-35388",
        "meta_object_id": "2025-262L",
        "meta_epoch": "2025-12-12T20:00:01.999872",
        "meta_mean_motion": 15.40796145,
        "meta_eccentricity": 0.00015004,
        "meta_inclination": 43.0004,
        "meta_ra_of_asc_node": 70.7366,
        "meta_arg_of_pericenter": 266.9731,
        "meta_mean_anomaly": 180.839,
        "meta_ephemeris_type": 0,
        "meta_classification_type": "U",
        "meta_norad_cat_id": 66466,
        "meta_element_set_no": 999,
        "meta_rev_at_epoch": 565,
        "meta_bstar": -0.0035656972,
        "meta_mean_motion_dot": -0.0014689,
        "meta_mean_motion_ddot": 0,
        "tle_line1": "1 66466U 25262L   25346.83335648 -.00146890  00000+0 -35657-2 0  9992",
        "tle_line2": "2 66466  43.0004  70.7366 0001500 266.9731 180.8390 15.40796145  5657"
      },
      "geometry": {
        "type": "Point",
        "coordinates": [
          13.699191177657816,
          -36.41438121612391
        ]
      }
    },
    {
      "type": "Feature",
      "properties": {
        "norad_id": 66467,
        "name": "STARLINK-35682",
        "group": "last-30-days",
        "lat": -42.79891291595285,
        "lon": -17.454982159364015,
        "alt_km": 446.150439003618,
        "timestamp": "2025-12-13T15:35:10.875132+00:00",
        "meta_object_name": "STARLINK-35682",
        "meta_object_id": "2025-262M",
        "meta_epoch": "2025-12-12T20:00:01.999872",
        "meta_mean_motion": 15.40654202,
        "meta_eccentricity": 0.00017527,
        "meta_inclination": 43.0006,
        "meta_ra_of_asc_node": 70.7988,
        "meta_arg_of_pericenter": 251.2618,
        "meta_mean_anomaly": 171.7155,
        "meta_ephemeris_type": 0,
        "meta_classification_type": "U",
        "meta_norad_cat_id": 66467,
        "meta_element_set_no": 999,
        "meta_rev_at_epoch": 565,
        "meta_bstar": 0.0013195533,
        "meta_mean_motion_dot": 0.00055133,
        "meta_mean_motion_ddot": 0,
        "tle_line1": "1 66467U 25262M   25346.83335648  .00055133  00000+0  13196-2 0  9994",
        "tle_line2": "2 66467  43.0006  70.7988 0001752 251.2618 171.7155 15.40654202  5655"
      },
      "geometry": {
        "type": "Point",
        "coordinates": [
          -17.454982159364015,
          -42.79891291595285
        ]
      }
    }
  ]
}